NORAD_CAT_ID,OBJECT_NAME,OBJECT_TYPE,EPOCH,MEAN_MOTION,ECCENTRICITY,INCLINATION,RA_OF_ASC_NODE,ARG_OF_PERICENTER,MEAN_ANOMALY,BSTAR,MEAN_MOTION_DOT,MEAN_MOTION_DDOT,TLE_LINE0,TLE_LINE1,TLE_LINE2,SEMIMAJOR_AXIS,PERIOD,APOGEE,PERIGEE,DECAYED
56799.0,STARLINK-5953,PAYLOAD,2023-09-09 14:00:01,15.59704471,0.0003444,69.9985,128.5582,260.8979,211.3122,-0.011753,-0.00862277,0.0,0 STARLINK-5953,1 56799U 23078AJ  23252.58334491 -.00862277  00000-0 -11753-1 0  9999,2 56799  69.9985 128.5582 0003444 260.8979 211.3122 15.59704471  5977,6766.649,92.325,390.844,386.183,0.0
56799.0,STARLINK-5953,PAYLOAD,2023-09-09 22:00:00,15.59070431,0.0003452,69.9983,127.6357,264.1196,278.8073,-0.012643,-0.00901643,0.0,0 STARLINK-5953,1 56799U 23078AJ  23252.91667824 -.00901643  00000-0 -12643-1 0  9995,2 56799  69.9983 127.6357 0003452 264.1196 278.8073 15.59070431 16250,6768.483,92.363,392.685,388.012,0.0
56799.0,STARLINK-5953,PAYLOAD,2023-09-10 14:00:01,15.57751032,0.000357,69.9983,125.793,260.2044,61.8061,-0.012724,-0.00866472,0.0,0 STARLINK-5953,1 56799U 23078AJ  23253.58334491 -.00866472  00000-0 -12724-1 0  9990,2 56799  69.9983 125.7930 0003570 260.2044  61.8061 15.57751032  6028,6772.304,92.441,396.587,391.752,0.0
56799.0,STARLINK-5953,PAYLOAD,2023-09-10 22:00:00,15.57126283,0.0003566,69.9986,124.873,267.8213,122.5564,-0.013923,-0.00920776,0.0,0 STARLINK-5953,1 56799U 23078AJ  23253.91667824 -.00920776  00000-0 -13923-1 0  9996,2 56799  69.9986 124.8730 0003566 267.8213 122.5564 15.57126283 16416,6774.116,92.478,398.396,393.565,0.0
56799.0,STARLINK-5953,PAYLOAD,2023-09-11 14:00:01,15.55799047,0.0003356,69.9982,123.0358,261.3169,263.453,-0.013786,-0.00872142,0.0,0 STARLINK-5953,1 56799U 23078AJ  23254.58334491 -.00872142  00000-0 -13786-1 0  9991,2 56799  69.9982 123.0358 0003356 261.3169 263.4530 15.55799047  5974,6777.968,92.557,402.108,397.558,0.0
56799.0,STARLINK-5953,PAYLOAD,2023-09-11 22:00:01,15.5515623,0.0003389,69.9981,122.1185,265.9988,324.8629,-0.014603,-0.00899482,0.0,0 STARLINK-5953,1 56799U 23078AJ  23254.91668981 -.00899482  00000-0 -14603-1 0  9997,2 56799  69.9981 122.1185 0003389 265.9988 324.8629 15.55156230 16576,6779.836,92.595,403.998,399.403,0.0
56799.0,STARLINK-5953,PAYLOAD,2023-09-12 14:00:01,15.53840804,0.0003545,69.9981,120.2868,261.8756,98.6806,-0.014781,-0.00870283,0.0,0 STARLINK-5953,1 56799U 23078AJ  23255.58335648 -.00870283  00000-0 -14781-1 0  9997,2 56799  69.9981 120.2868 0003545 261.8756  98.6806 15.53840804 16674,6783.661,92.674,407.931,403.122,0.0
56799.0,STARLINK-5953,PAYLOAD,2023-09-12 22:00:00,15.53203671,0.0003506,69.998,119.3723,268.0721,156.0974,-0.015839,-0.00907498,0.0,0 STARLINK-5953,1 56799U 23078AJ  23255.91667824 -.00907498  00000-0 -15839-1 0  9992,2 56799  69.9980 119.3723 0003506 268.0721 156.0974 15.53203671  6017,6785.516,92.712,409.76,405.002,0.0
56799.0,STARLINK-5953,PAYLOAD,2023-09-13 06:00:02,15.52574035,0.0003384,69.9975,118.4583,267.8813,219.238,-0.01697,-0.0095974,0.0,0 STARLINK-5953,1 56799U 23078AJ  23256.25002315 -.00959740  00000-0 -16970-1 0  9992,2 56799  69.9975 118.4583 0003384 267.8813 219.2380 15.52574035 16779,6787.351,92.749,411.513,406.919,0.0
56799.0,STARLINK-5953,PAYLOAD,2023-09-13 14:00:01,15.51820825,0.0003357,69.9978,117.5454,261.2503,287.9313,-0.012733,-0.00700203,0.0,0 STARLINK-5953,1 56799U 23078AJ  23256.58334491 -.00700203  00000-0 -12733-1 0  9992,2 56799  69.9978 117.5454 0003357 261.2503 287.9313 15.51820825  5870,6789.547,92.794,413.691,409.133,0.0
56799.0,STARLINK-5953,PAYLOAD,2023-09-13 22:00:00,15.51213333,0.0003279,69.998,116.6334,267.1067,343.405,0.00015449,8.916e-05,0.0,0 STARLINK-5953,1 56799U 23078AJ  23256.91667824  .00008916  00000-0  15449-3 0  9997,2 56799  69.9980 116.6334 0003279 267.1067 343.4050 15.51213333 16882,6791.319,92.831,415.411,410.958,0.0
56799.0,STARLINK-5953,PAYLOAD,2023-09-14 14:00:01,15.51223579,0.0003225,69.9987,114.8105,262.2898,110.0964,0.00036595,0.00021388,0.0,0 STARLINK-5953,1 56799U 23078AJ  23257.58335648  .00021388  00000-0  36595-3 0  9990,2 56799  69.9987 114.8105 0003225 262.2898 110.0964 15.51223579  6035,6791.289,92.83,415.345,410.964,0.0
56799.0,STARLINK-5953,PAYLOAD,2023-09-14 22:00:00,15.51217862,0.0003208,69.9984,113.8991,269.6284,163.6181,0.00023058,0.00013399,0.0,0 STARLINK-5953,1 56799U 23078AJ  23257.91667824  .00013399  00000-0  23058-3 0  9994,2 56799  69.9984 113.8991 0003208 269.6284 163.6181 15.51217862  6038,6791.306,92.83,415.35,410.993,0.0
56799.0,STARLINK-5953,PAYLOAD,2023-09-15 04:00:00,15.51260153,0.000325,69.9983,113.2154,271.844,117.0793,-0.0012873,-0.00075163,0.0,0 STARLINK-5953,1 56799U 23078AJ  23258.16667824 -.00075163  00000-0 -12873-2 0  9993,2 56799  69.9983 113.2154 0003250 271.8440 117.0793 15.51260153 17077,6791.183,92.828,415.255,410.841,0.0
56799.0,STARLINK-5953,PAYLOAD,2023-09-15 14:00:01,15.51216565,0.00033,69.9992,112.0764,264.9312,290.1346,0.00059811,0.00035114,0.0,0 STARLINK-5953,1 56799U 23078AJ  23258.58334491  .00035114  00000-0  59811-3 0  9994,2 56799  69.9992 112.0764 0003300 264.9312 290.1346 15.51216565 17130,6791.31,92.83,415.416,410.934,0.0
56799.0,STARLINK-5953,PAYLOAD,2023-09-16 06:00:00,15.51277703,0.0003443,69.9985,110.2532,269.1853,47.7065,-0.0024831,-0.00143687,0.0,0 STARLINK-5953,1 56799U 23078AJ  23259.25001157 -.00143687  00000-0 -24831-2 0  9999,2 56799  69.9985 110.2532 0003443 269.1853  47.7065 15.51277703 17247,6791.132,92.827,415.335,410.658,0.0
56799.0,STARLINK-5953,PAYLOAD,2023-09-16 14:00:01,15.51416873,0.0003487,69.9989,109.3417,265.4743,112.3044,-0.012241,-0.00666331,0.0,0 STARLINK-5953,1 56799U 23078AJ  23259.58334491 -.00666331  00000-0 -12241-1 0  9992,2 56799  69.9989 109.3417 0003487 265.4743 112.3044 15.51416873  6031,6790.725,92.818,414.958,410.222,0.0
56799.0,STARLINK-5953,PAYLOAD,2023-09-16 22:00:00,15.50921334,0.0003443,69.9991,108.4303,271.0934,167.555,-0.016948,-0.00895452,0.0,0 STARLINK-5953,1 56799U 23078AJ  23259.91667824 -.00895452  00000-0 -16948-1 0  9994,2 56799  69.9991 108.4303 0003443 271.0934 167.5550 15.50921334 17347,6792.172,92.848,416.375,411.698,0.0
56799.0,STARLINK-5953,PAYLOAD,2023-09-16 23:12:47,15.51072263,0.0002999,69.9972,108.2938,274.1649,85.9194,-0.00033849,-0.0001989,0.0,0 STARLINK-5953,1 56799U 23078AJ  23259.96721437 -.00019890  00000-0 -33849-3 0  9995,2 56799  69.9972 108.2938 0002999 274.1649  85.9194 15.51072263 17357,6791.731,92.839,415.633,411.559,0.0
56799.0,STARLINK-5953,PAYLOAD,2023-09-17 17:56:56,15.42677673,0.0029282,69.9905,106.2032,101.1856,259.262,-0.022446,-0.0090853,0.0,0 STARLINK-5953,1 56799U 23078AJ  23260.74787220 -.00908530  00000-0 -22446-1 0  9992,2 56799  69.9905 106.2032 0029282 101.1856 259.2620 15.42677673 17478,6816.347,93.344,458.172,418.253,0.0
56799.0,STARLINK-5953,PAYLOAD,2023-09-18 06:00:00,15.48329897,0.0003461,69.9987,104.7935,267.5123,47.0835,-0.019539,-0.00950818,0.0,0 STARLINK-5953,1 56799U 23078AJ  23261.25001157 -.00950818  00000-0 -19539-1 0  9992,2 56799  69.9987 104.7935 0003461 267.5123  47.0835 15.48329897 17556,6799.748,93.003,423.967,419.26,0.0
56799.0,STARLINK-5953,PAYLOAD,2023-09-18 14:00:01,15.47677559,0.0003517,69.9992,103.8867,264.9111,106.7067,-0.019341,-0.00922385,0.0,0 STARLINK-5953,1 56799U 23078AJ  23261.58334491 -.00922385  00000-0 -19341-1 0  9997,2 56799  69.9992 103.8867 0003517 264.9111 106.7067 15.47677559  6026,6801.659,93.043,425.916,421.132,0.0
56799.0,STARLINK-5953,PAYLOAD,2023-09-18 22:00:00,15.47002992,0.0003432,69.9992,102.9805,272.0159,155.8672,-0.019304,-0.00901009,0.0,0 STARLINK-5953,1 56799U 23078AJ  23261.91667824 -.00901009  00000-0 -19304-1 0  9992,2 56799  69.9992 102.9805 0003432 272.0159 155.8672 15.47002992 17657,6803.636,93.083,427.836,423.166,0.0
56799.0,STARLINK-5953,PAYLOAD,2023-09-19 14:00:01,15.45717736,0.0003296,69.9994,101.171,263.4708,274.5507,-0.020579,-0.00917355,0.0,0 STARLINK-5953,1 56799U 23078AJ  23262.58334491 -.00917355  00000-0 -20579-1 0  9994,2 56799  69.9994 101.1710 0003296 263.4708 274.5507 15.45717736 17751,6807.407,93.161,431.516,427.028,0.0
56799.0,STARLINK-5953,PAYLOAD,2023-09-20 06:00:00,15.44412371,0.0003353,69.9992,99.365,266.1779,18.8774,-0.022179,-0.0094319,0.0,0 STARLINK-5953,1 56799U 23078AJ  23263.25001157 -.00943190  00000-0 -22179-1 0  9993,2 56799  69.9992  99.3650 0003353 266.1779  18.8774 15.44412371 17865,6811.242,93.239,435.391,430.823,0.0
56799.0,STARLINK-5953,PAYLOAD,2023-09-20 14:00:01,15.43766757,0.0003557,69.9996,98.4635,263.7062,73.6759,-0.022284,-0.00928405,0.0,0 STARLINK-5953,1 56799U 23078AJ  23263.58334491 -.00928405  00000-0 -22284-1 0  9998,2 56799  69.9996  98.4635 0003557 263.7062  73.6759 15.43766757  6012,6813.141,93.278,437.43,432.583,0.0
56799.0,STARLINK-5953,PAYLOAD,2023-09-20 22:00:00,15.43088174,0.0003489,69.9995,97.5627,271.2053,117.748,-0.021972,-0.00897202,0.0,0 STARLINK-5953,1 56799U 23078AJ  23263.91667824 -.00897202  00000-0 -21972-1 0  9997,2 56799  69.9995  97.5627 0003489 271.2053 117.7480 15.43088174  5964,6815.138,93.319,439.381,434.626,0.0
56799.0,STARLINK-5953,PAYLOAD,2023-09-21 14:00:01,15.41807628,0.0003346,69.9999,95.7643,266.3238,223.3808,-0.02373,-0.00925631,0.0,0 STARLINK-5953,1 56799U 23078AJ  23264.58334491 -.00925631  00000-0 -23730-1 0  9994,2 56799  69.9999  95.7643 0003346 266.3238 223.3808 15.41807628 18062,6818.911,93.397,443.058,438.495,0.0
56799.0,STARLINK-5953,PAYLOAD,2023-09-21 22:00:01,15.41126994,0.0003329,69.9997,94.8663,271.512,267.4811,-0.023266,-0.00890087,0.0,0 STARLINK-5953,1 56799U 23078AJ  23264.91668981 -.00890087  00000-0 -23266-1 0  9995,2 56799  69.9997  94.8663 0003329 271.5120 267.4811 15.41126994  5969,6820.919,93.438,445.055,440.513,0.0
56799.0,STARLINK-5953,PAYLOAD,2023-09-22 14:00:01,15.39851588,0.0003382,70.0001,93.0729,263.7559,11.2281,-0.025285,-0.00924271,0.0,0 STARLINK-5953,1 56799U 23078AJ  23265.58334491 -.00924271  00000-0 -25285-1 0  9991,2 56799  70.0001  93.0729 0003382 263.7559  11.2281 15.39851588 18220,6824.685,93.516,448.858,444.242,0.0
